STARLINK-2705           
1 48672U 21044AL  26068.33834318 -.00004992  00000+0 -15241-3 0  9994
2 48672  53.1598 105.8091 0001581  77.9359 282.1819 15.31035302263903
TEVEL2-2                
1 63219U 25052K   26068.64848259  .00020339  00000+0  69428-3 0  9991
2 63219  97.3987 324.7700 0004693 105.7930 254.3828 15.30343745 54855
